NORAD_CAT_ID,OBJECT_NAME,OBJECT_TYPE,EPOCH,MEAN_MOTION,ECCENTRICITY,INCLINATION,RA_OF_ASC_NODE,ARG_OF_PERICENTER,MEAN_ANOMALY,BSTAR,MEAN_MOTION_DOT,MEAN_MOTION_DDOT,TLE_LINE0,TLE_LINE1,TLE_LINE2,SEMIMAJOR_AXIS,PERIOD,APOGEE,PERIGEE,DECAYED
52464.0,STARLINK-3904,PAYLOAD,2022-07-08 22:00:01,15.33529807,0.0001548,53.2171,314.6377,40.31800000000001,284.7978,-0.035527,-0.01071206,0.0,0 STARLINK-3904,1 52464U 22049P   22189.91668981 -.01071206  00000-0 -35527-1 0  9990,2 52464  53.2171 314.6377 0001548  40.3180 284.7978 15.33529807  1309,6843.428000000001,93.901,466.352,464.233,0.0
52464.0,STARLINK-3904,PAYLOAD,2022-07-09 06:00:00,15.32765673,0.000157,53.2172,313.0793,37.5813,328.2707,-0.036147,-0.01064386,0.0,0 STARLINK-3904,1 52464U 22049P   22190.25001157 -.01064386  00000-0 -36147-1 0  9995,2 52464  53.2172 313.0793 0001570  37.5813 328.2707 15.32765673 10183,6845.7019999999975,93.948,468.642,466.492,0.0
52464.0,STARLINK-3904,PAYLOAD,2022-07-09 14:00:01,15.32009014,0.0002125,53.2174,311.5259,25.5191,20.2152,-0.037161,-0.01068197,0.0,0 STARLINK-3904,1 52464U 22049P   22190.58334491 -.01068197  00000-0 -37161-1 0  9992,2 52464  53.2174 311.5259 0002125  25.5191  20.2152 15.32009014  1305,6847.956,93.994,471.276,468.366,0.0
52464.0,STARLINK-3904,PAYLOAD,2022-07-09 20:00:01,15.31438485,0.0001479,53.2171,310.3612,42.9703,302.0783,-0.037736,-0.01065513,0.0,0 STARLINK-3904,1 52464U 22049P   22190.83334491 -.01065513  00000-0 -37736-1 0  9997,2 52464  53.2171 310.3612 0001479  42.9703 302.0783 15.31438485  1303,6849.656999999997,94.029,472.535,470.509,0.0
52464.0,STARLINK-3904,PAYLOAD,2022-07-10 06:00:00,15.3048892,0.0001822,53.2174,308.4195,37.5954,85.1718,-0.038933,-0.01067054,0.0,0 STARLINK-3904,1 52464U 22049P   22191.25001157 -.01067054  00000-0 -38933-1 0  9996,2 52464  53.2174 308.4195 0001822  37.5954  85.1718 15.30488920 10338,6852.49,94.088,475.603,473.106,0.0
52464.0,STARLINK-3904,PAYLOAD,2022-07-10 14:00:01,15.29728653,0.0001935,53.2173,306.8716,38.5028,121.4101,-0.039785,-0.01065092,0.0,0 STARLINK-3904,1 52464U 22049P   22191.58334491 -.01065092  00000-0 -39785-1 0  9998,2 52464  53.2173 306.8716 0001935  38.5028 121.4101 15.29728653  1301,6854.76,94.134,477.951,475.298,0.0
52464.0,STARLINK-3904,PAYLOAD,2022-07-10 22:00:00,15.28970464,0.0001683,53.2171,305.3233,47.9693,148.1773,-0.040805,-0.01066814,0.0,0 STARLINK-3904,1 52464U 22049P   22191.91667824 -.01066814  00000-0 -40805-1 0  9992,2 52464  53.2171 305.3233 0001683  47.9693 148.1773 15.28970464  1308,6857.026,94.181,480.045,477.737,0.0
52464.0,STARLINK-3904,PAYLOAD,2022-07-11 06:00:00,15.28210424,0.0001623,53.2173,303.7757,49.4044,182.0646,-0.04176,-0.01066495,0.0,0 STARLINK-3904,1 52464U 22049P   22192.25001157 -.01066495  00000-0 -41760-1 0  9997,2 52464  53.2173 303.7757 0001623  49.4044 182.0646 15.28210424 10482,6859.299,94.228,482.277,480.051,0.0
52464.0,STARLINK-3904,PAYLOAD,2022-07-11 14:00:01,15.27449872,0.0001937,53.2174,302.2333,35.6808,230.1958,-0.042643,-0.01064183,0.0,0 STARLINK-3904,1 52464U 22049P   22192.58334491 -.01064183  00000-0 -42643-1 0  9996,2 52464  53.2174 302.2333 0001937  35.6808 230.1958 15.27449872  1302,6861.576,94.275,484.77,482.112,0.0
52464.0,STARLINK-3904,PAYLOAD,2022-07-11 22:00:00,15.26693132,0.0001595999999999,53.2171,300.6902,42.8995,256.4726,-0.043855,-0.01068904,0.0,0 STARLINK-3904,1 52464U 22049P   22192.91667824 -.01068904  00000-0 -43855-1 0  9993,2 52464  53.2171 300.6902 0001596  42.8995 256.4726 15.26693132  1304,6863.843000000003,94.322,486.80300000000005,484.61300000000006,0.0
52464.0,STARLINK-3904,PAYLOAD,2022-07-12 06:00:00,15.25929835,0.0001494,53.2174,299.1482,45.8889,286.0685,-0.044595,-0.01062534,0.0,0 STARLINK-3904,1 52464U 22049P   22193.25001157 -.01062534  00000-0 -44595-1 0  9997,2 52464  53.2174 299.1482 0001494  45.8889 286.0685 15.25929835 10645,6866.132,94.369,489.023,486.971,0.0
52464.0,STARLINK-3904,PAYLOAD,2022-07-12 14:00:01,15.25173433,0.0001839,53.2173,297.611,33.3097,330.316,-0.045851,-0.0106736,0.0,0 STARLINK-3904,1 52464U 22049P   22193.58334491 -.01067360  00000-0 -45851-1 0  9991,2 52464  53.2173 297.6110 0001839  33.3097 330.3160 15.25173433  1311,6868.401999999999,94.415,491.53,489.004,0.0
52464.0,STARLINK-3904,PAYLOAD,2022-07-12 22:00:00,15.24413343,0.0001698,53.2172,296.0732,36.3845,358.0,-0.046877,-0.01066561,0.0,0 STARLINK-3904,1 52464U 22049P   22193.91667824 -.01066561  00000-0 -46877-1 0  9998,2 52464  53.2172 296.0732 0001698  36.3845 358.0000 15.24413343  1305,6870.685,94.463,493.716,491.383,0.0
52464.0,STARLINK-3904,PAYLOAD,2022-07-13 06:00:00,15.23651536,0.0001814,53.2174,294.5365,35.4973,28.7338,-0.047761,-0.01062498,0.0,0 STARLINK-3904,1 52464U 22049P   22194.25001157 -.01062498  00000-0 -47761-1 0  9995,2 52464  53.2174 294.5365 0001814  35.4973  28.7338 15.23651536 10799,6872.975,94.51,496.086,493.593,0.0
52464.0,STARLINK-3904,PAYLOAD,2022-07-13 14:00:01,15.22894812,0.0002088,53.2174,293.0049,31.3937,61.7678,-0.049076,-0.01067,0.0,0 STARLINK-3904,1 52464U 22049P   22194.58334491 -.01067000  00000-0 -49076-1 0  9996,2 52464  53.2174 293.0049 0002088  31.3937  61.7678 15.22894812  1307,6875.251,94.557,498.552,495.681,0.0
52464.0,STARLINK-3904,PAYLOAD,2022-07-13 22:00:00,15.22133664,0.000173,53.2173,291.4722,43.3213,77.8616,-0.050053,-0.01064062,0.0,0 STARLINK-3904,1 52464U 22049P   22194.91667824 -.01064062  00000-0 -50053-1 0  9994,2 52464  53.2173 291.4722 0001730  43.3213  77.8616 15.22133664  1300,6877.543000000002,94.604,500.598,498.218,0.0
52464.0,STARLINK-3904,PAYLOAD,2022-07-14 08:00:01,15.21183581,0.0001794,53.2176,289.5595,42.7464,202.178,-0.051384,-0.01062245,0.0,0 STARLINK-3904,1 52464U 22049P   22195.33334491 -.01062245  00000-0 -51384-1 0  9991,2 52464  53.2176 289.5595 0001794  42.7464 202.1780 15.21183581 10958,6880.406,94.663,503.506,501.037,0.0
52464.0,STARLINK-3904,PAYLOAD,2022-07-14 14:00:01,15.20614408,0.0002095,53.2174,288.4148,36.1835,138.3006,-0.052311,-0.01063385,0.0,0 STARLINK-3904,1 52464U 22049P   22195.58334491 -.01063385  00000-0 -52311-1 0  9995,2 52464  53.2174 288.4148 0002095  36.1835 138.3006 15.20614408  1308,6882.123000000001,94.699,505.43,502.546,0.0
52464.0,STARLINK-3904,PAYLOAD,2022-07-14 22:00:00,15.19855659,0.0001694,53.2174,286.8873,49.4638,150.3027,-0.05356,-0.01064594,0.0,0 STARLINK-3904,1 52464U 22049P   22195.91667824 -.01064594  00000-0 -53560-1 0  9991,2 52464  53.2174 286.8873 0001694  49.4638 150.3027 15.19855659  1307,6884.413000000001,94.746,507.445,505.112,0.0
52464.0,STARLINK-3904,PAYLOAD,2022-07-15 06:00:00,15.1909514,0.0001754,53.2175,285.3618,46.4434,177.6928,-0.054621,-0.01062059,0.0,0 STARLINK-3904,1 52464U 22049P   22196.25001157 -.01062059  00000-0 -54621-1 0  9993,2 52464  53.2175 285.3618 0001754  46.4434 177.6928 15.19095140 11097,6886.7109999999975,94.793,509.784,507.36800000000005,0.0
52464.0,STARLINK-3904,PAYLOAD,2022-07-15 14:00:01,15.18335148,0.0001904,53.2175,283.8406,40.3259,207.2662,-0.055817,-0.01075073,0.0,0 STARLINK-3904,1 52464U 22049P   22196.58334491 -.01075073  00000-0 -55817-1 0  9997,2 52464  53.2175 283.8406 0001904  40.3259 207.2662 15.18335148  1302,6889.009,94.841,512.186,509.562,0.0
52464.0,STARLINK-3904,PAYLOAD,2022-07-15 22:00:00,15.17577788,0.000149,53.2174,282.3184,56.2405,213.8957,-0.0573,-0.01079297,0.0,0 STARLINK-3904,1 52464U 22049P   22196.91667824 -.01079297  00000-0 -57300-1 0  9994,2 52464  53.2174 282.3184 0001490  56.2405 213.8957 15.17577788  1304,6891.301,94.888,514.192,512.139,0.0
52464.0,STARLINK-3904,PAYLOAD,2022-07-16 06:00:00,15.16815867,0.0001522,53.2176,280.7982,52.5097,239.2587,-0.058259,-0.01073944,0.0,0 STARLINK-3904,1 52464U 22049P   22197.25001157 -.01073944  00000-0 -58259-1 0  9990,2 52464  53.2176 280.7982 0001522  52.5097 239.2587 15.16815867 11254,6893.608,94.936,516.5219999999998,514.424,0.0
52464.0,STARLINK-3904,PAYLOAD,2022-07-16 14:00:01,15.16057159,0.0001801,53.2175,279.2824,38.523,273.9627,-0.059647,-0.01075757,0.0,0 STARLINK-3904,1 52464U 22049P   22197.58334491 -.01075757  00000-0 -59647-1 0  9992,2 52464  53.2175 279.2824 0001801  38.5230 273.9627 15.16057159  1301,6895.908,94.983,519.015,516.531,0.0
52464.0,STARLINK-3904,PAYLOAD,2022-07-16 22:00:00,15.15299066,0.0001434,53.2174,277.7652,51.1874,281.1051,-0.061158,-0.01079043,0.0,0 STARLINK-3904,1 52464U 22049P   22197.91667824 -.01079043  00000-0 -61158-1 0  9990,2 52464  53.2174 277.7652 0001434  51.1874 281.1051 15.15299066  1305,6898.208000000001,95.031,521.062,519.0840000000002,0.0
52464.0,STARLINK-3904,PAYLOAD,2022-07-17 06:00:00,15.14536959,0.0001433,53.2177,276.2507,52.7494,298.4371,-0.062145,-0.01073374,0.0,0 STARLINK-3904,1 52464U 22049P   22198.25001157 -.01073374  00000-0 -62145-1 0  9997,2 52464  53.2177 276.2507 0001433  52.7494 298.4371 15.14536959 11407,6900.522,95.079,523.376,521.398,0.0
52464.0,STARLINK-3904,PAYLOAD,2022-07-17 14:00:01,15.13778944,0.000173,53.2176,274.7401,38.8067,330.3590000000001,-0.063685,-0.01076411,0.0,0 STARLINK-3904,1 52464U 22049P   22198.58334491 -.01076411  00000-0 -63685-1 0  9998,2 52464  53.2176 274.7401 0001730  38.8067 330.3590 15.13778944  1301,6902.825,95.126,525.884,523.496,0.0
52464.0,STARLINK-3904,PAYLOAD,2022-07-17 22:00:00,15.13019659,0.0001676999999999,53.2174,273.2281,38.9367,347.2981,-0.0651409999999999,-0.01077577,0.0,0 STARLINK-3904,1 52464U 22049P   22198.91667824 -.01077577  00000-0 -65141-1 0  9997,2 52464  53.2174 273.2281 0001677  38.9367 347.2981 15.13019659  1305,6905.134,95.174,528.1569999999998,525.841,0.0
52464.0,STARLINK-3904,PAYLOAD,2022-07-18 06:00:00,15.12258204,0.0001656,53.2176,271.7191,42.3675,0.0231,-0.066264,-0.01073277,0.0,0 STARLINK-3904,1 52464U 22049P   22199.25001157 -.01073277  00000-0 -66264-1 0  9996,2 52464  53.2176 271.7191 0001656  42.3675   0.0231 15.12258204 11558,6907.4519999999975,95.222,530.461,528.173,0.0
